[{"OBJECT_NAME":"GCOM-C (SHIKISAI)","OBJECT_ID":"2017-082A","EPOCH":"2026-03-09T22:50:15.762048","MEAN_MOTION":14.27292109,"ECCENTRICITY":0.00011018,"INCLINATION":98.6348,"RA_OF_ASC_NODE":143.8758,"ARG_OF_PERICENTER":107.3468,"MEAN_ANOMALY":252.7834,"EPHEMERIS_TYPE":0,"CLASSIFICATION_TYPE":"U","NORAD_CAT_ID":43065,"ELEMENT_SET_NO":999,"REV_AT_EPOCH":42778,"BSTAR":9.0011429e-5,"MEAN_MOTION_DOT":1.76e-6,"MEAN_MOTION_DDOT":0},{"OBJECT_NAME":"CZ-6A DEB","OBJECT_ID":"2024-140ADP","EPOCH":"2026-03-09T14:02:48.489216","MEAN_MOTION":14.21120184,"ECCENTRICITY":0.0038542,"INCLINATION":89.0295,"RA_OF_ASC_NODE":288.0737,"ARG_OF_PERICENTER":144.7067,"MEAN_ANOMALY":215.6687,"EPHEMERIS_TYPE":0,"CLASSIFICATION_TYPE":"U","NORAD_CAT_ID":63392,"ELEMENT_SET_NO":999,"REV_AT_EPOCH":7980,"BSTAR":0.00018757,"MEAN_MOTION_DOT":4.25e-6,"MEAN_MOTION_DDOT":0}]
